[{"OBJECT_NAME":"SL-16 R/B","OBJECT_ID":"1993-059B","EPOCH":"2026-04-03T22:57:38.755584","MEAN_MOTION":14.17234867,"ECCENTRICITY":0.00170849,"INCLINATION":70.9906,"RA_OF_ASC_NODE":317.8462,"ARG_OF_PERICENTER":179.1684,"MEAN_ANOMALY":180.9472,"EPHEMERIS_TYPE":0,"CLASSIFICATION_TYPE":"U","NORAD_CAT_ID":22803,"ELEMENT_SET_NO":999,"REV_AT_EPOCH":68311,"BSTAR":6.6080844e-5,"MEAN_MOTION_DOT":8.6e-7,"MEAN_MOTION_DDOT":0},{"OBJECT_NAME":"ARIANE 40 R/B","OBJECT_ID":"1993-061H","EPOCH":"2026-04-04T04:28:42.630528","MEAN_MOTION":14.32875666,"ECCENTRICITY":0.00103537,"INCLINATION":98.487,"RA_OF_ASC_NODE":162.5652,"ARG_OF_PERICENTER":202.6778,"MEAN_ANOMALY":157.395,"EPHEMERIS_TYPE":0,"CLASSIFICATION_TYPE":"U","NORAD_CAT_ID":22830,"ELEMENT_SET_NO":999,"REV_AT_EPOCH":69775,"BSTAR":0.00014028014,"MEAN_MOTION_DOT":3.4e-6,"MEAN_MOTION_DDOT":0},{"OBJECT_NAME":"COSMOS 2278","OBJECT_ID":"1994-023A","EPOCH":"2026-04-04T06:29:22.726752","MEAN_MOTION":14.14374933,"ECCENTRICITY":0.00093396,"INCLINATION":71.0505,"RA_OF_ASC_NODE":121.58,"ARG_OF_PERICENTER":335.5362,"MEAN_ANOMALY":24.5316,"EPHEMERIS_TYPE":0,"CLASSIFICATION_TYPE":"U","NORAD_CAT_ID":23087,"ELEMENT_SET_NO":999,"REV_AT_EPOCH":64842,"BSTAR":3.1540029e-5,"MEAN_MOTION_DOT":1.3e-7,"MEAN_MOTION_DDOT":0},{"OBJECT_NAME":"SL-16 R/B","OBJECT_ID":"1994-023B","EPOCH":"2026-04-04T05:37:54.325920","MEAN_MOTION":14.15019614,"ECCENTRICITY":0.00055886,"INCLINATION":71.0031,"RA_OF_ASC_NODE":17.2394,"ARG_OF_PERICENTER":263.3895,"MEAN_ANOMALY":96.6591,"EPHEMERIS_TYPE":0,"CLASSIFICATION_TYPE":"U","NORAD_CAT_ID":23088,"ELEMENT_SET_NO":999,"REV_AT_EPOCH":64970,"BSTAR":0.00011946403,"MEAN_MOTION_DOT":1.84e-6,"MEAN_MOTION_DDOT":0},{"OBJECT_NAME":"SL-16 R/B","OBJECT_ID":"1994-074B","EPOCH":"2026-04-04T02:08:02.752800","MEAN_MOTION":14.79439412,"ECCENTRICITY":0.00076843,"INCLINATION":97.707,"RA_OF_ASC_NODE":123.8739,"ARG_OF_PERICENTER":130.6619,"MEAN_ANOMALY":289.9702,"EPHEMERIS_TYPE":0,"CLASSIFICATION_TYPE":"U","NORAD_CAT_ID":23343,"ELEMENT_SET_NO":999,"REV_AT_EPOCH":69100,"BSTAR":0.00011641776,"MEAN_MOTION_DOT":8.2e-6,"MEAN_MOTION_DDOT":0},{"OBJECT_NAME":"SL-16 R/B","OBJECT_ID":"1994-077B","EPOCH":"2026-04-03T23:51:47.361888","MEAN_MOTION":14.15568198,"ECCENTRICITY":0.00016048,"INCLINATION":70.9821,"RA_OF_ASC_NODE":299.2542,"ARG_OF_PERICENTER":190.0745,"MEAN_ANOMALY":170.0346,"EPHEMERIS_TYPE":0,"CLASSIFICATION_TYPE":"U","NORAD_CAT_ID":23405,"ELEMENT_SET_NO":999,"REV_AT_EPOCH":61981,"BSTAR":-7.2958311e-5,"MEAN_MOTION_DOT":-1.91e-6,"MEAN_MOTION_DDOT":0},{"OBJECT_NAME":"ARIANE 40+ R/B","OBJECT_ID":"1995-021B","EPOCH":"2026-04-04T04:20:58.736832","MEAN_MOTION":14.39792168,"ECCENTRICITY":0.00078345,"INCLINATION":98.4453,"RA_OF_ASC_NODE":165.3128,"ARG_OF_PERICENTER":70.9108,"MEAN_ANOMALY":343.4137,"EPHEMERIS_TYPE":0,"CLASSIFICATION_TYPE":"U","NORAD_CAT_ID":23561,"ELEMENT_SET_NO":999,"REV_AT_EPOCH":62291,"BSTAR":0.00016485882,"MEAN_MOTION_DOT":4.74e-6,"MEAN_MOTION_DDOT":0},{"OBJECT_NAME":"SL-16 R/B","OBJECT_ID":"1995-058B","EPOCH":"2026-04-04T06:50:41.218656","MEAN_MOTION":14.15497841,"ECCENTRICITY":0.00102999,"INCLINATION":71.0191,"RA_OF_ASC_NODE":126.5202,"ARG_OF_PERICENTER":78.8463,"MEAN_ANOMALY":281.3818,"EPHEMERIS_TYPE":0,"CLASSIFICATION_TYPE":"U","NORAD_CAT_ID":23705,"ELEMENT_SET_NO":999,"REV_AT_EPOCH":57147,"BSTAR":3.353256e-6,"MEAN_MOTION_DOT":-4.1e-7,"MEAN_MOTION_DDOT":0},{"OBJECT_NAME":"SL-16 R/B","OBJECT_ID":"1996-051B","EPOCH":"2026-04-04T05:40:46.209216","MEAN_MOTION":14.12423468,"ECCENTRICITY":0.00131021,"INCLINATION":70.7581,"RA_OF_ASC_NODE":121.1671,"ARG_OF_PERICENTER":106.0632,"MEAN_ANOMALY":254.1932,"EPHEMERIS_TYPE":0,"CLASSIFICATION_TYPE":"U","NORAD_CAT_ID":24298,"ELEMENT_SET_NO":999,"REV_AT_EPOCH":52525,"BSTAR":9.7419065e-5,"MEAN_MOTION_DOT":1.31e-6,"MEAN_MOTION_DDOT":0},{"OBJECT_NAME":"ORBVIEW 2 (SEASTAR)","OBJECT_ID":"1997-037A","EPOCH":"2026-04-04T04:58:46.741152","MEAN_MOTION":14.35514238,"ECCENTRICITY":0.00020774,"INCLINATION":98.8611,"RA_OF_ASC_NODE":259.2014,"ARG_OF_PERICENTER":14.3141,"MEAN_ANOMALY":345.8103,"EPHEMERIS_TYPE":0,"CLASSIFICATION_TYPE":"U","NORAD_CAT_ID":24883,"ELEMENT_SET_NO":999,"REV_AT_EPOCH":51213,"BSTAR":0.00017044053,"MEAN_MOTION_DOT":4.44e-6,"MEAN_MOTION_DDOT":0},{"OBJECT_NAME":"SL-16 R/B","OBJECT_ID":"1998-043G","EPOCH":"2026-04-04T06:30:14.275584","MEAN_MOTION":14.26056094,"ECCENTRICITY":0.000896,"INCLINATION":98.8298,"RA_OF_ASC_NODE":47.8227,"ARG_OF_PERICENTER":304.239,"MEAN_ANOMALY":55.794,"EPHEMERIS_TYPE":0,"CLASSIFICATION_TYPE":"U","NORAD_CAT_ID":25400,"ELEMENT_SET_NO":999,"REV_AT_EPOCH":44263,"BSTAR":6.3825582e-5,"MEAN_MOTION_DOT":1.07e-6,"MEAN_MOTION_DDOT":0},{"OBJECT_NAME":"SL-16 R/B","OBJECT_ID":"1998-045B","EPOCH":"2026-04-04T06:48:19.169280","MEAN_MOTION":14.16193545,"ECCENTRICITY":0.00082263,"INCLINATION":71.009,"RA_OF_ASC_NODE":127.753,"ARG_OF_PERICENTER":330.5545,"MEAN_ANOMALY":29.5114,"EPHEMERIS_TYPE":0,"CLASSIFICATION_TYPE":"U","NORAD_CAT_ID":25407,"ELEMENT_SET_NO":999,"REV_AT_EPOCH":43072,"BSTAR":6.5946099e-5,"MEAN_MOTION_DOT":8.3e-7,"MEAN_MOTION_DDOT":0},{"OBJECT_NAME":"ISS (ZARYA)","OBJECT_ID":"1998-067A","EPOCH":"2026-04-04T01:39:43.591392","MEAN_MOTION":15.4875813,"ECCENTRICITY":0.00062512,"INCLINATION":51.6326,"RA_OF_ASC_NODE":306.884,"ARG_OF_PERICENTER":269.7954,"MEAN_ANOMALY":90.2318,"EPHEMERIS_TYPE":0,"CLASSIFICATION_TYPE":"U","NORAD_CAT_ID":25544,"ELEMENT_SET_NO":999,"REV_AT_EPOCH":56026,"BSTAR":0.00022464475,"MEAN_MOTION_DOT":0.00011847,"MEAN_MOTION_DDOT":0},{"OBJECT_NAME":"CZ-4B R/B","OBJECT_ID":"1999-025C","EPOCH":"2026-04-04T03:12:32.765184","MEAN_MOTION":14.18270738,"ECCENTRICITY":0.00359773,"INCLINATION":98.6573,"RA_OF_ASC_NODE":137.8064,"ARG_OF_PERICENTER":271.6847,"MEAN_ANOMALY":151.1591,"EPHEMERIS_TYPE":0,"CLASSIFICATION_TYPE":"U","NORAD_CAT_ID":25732,"ELEMENT_SET_NO":999,"REV_AT_EPOCH":39177,"BSTAR":6.2560322e-5,"MEAN_MOTION_DOT":8.6e-7,"MEAN_MOTION_DDOT":0},{"OBJECT_NAME":"OKEAN-O","OBJECT_ID":"1999-039A","EPOCH":"2026-04-04T03:13:25.787136","MEAN_MOTION":14.8037984,"ECCENTRICITY":9.243e-5,"INCLINATION":97.9389,"RA_OF_ASC_NODE":153.7604,"ARG_OF_PERICENTER":103.2505,"MEAN_ANOMALY":256.881,"EPHEMERIS_TYPE":0,"CLASSIFICATION_TYPE":"U","NORAD_CAT_ID":25860,"ELEMENT_SET_NO":999,"REV_AT_EPOCH":43815,"BSTAR":0.0001598292,"MEAN_MOTION_DOT":1.168e-5,"MEAN_MOTION_DDOT":0},{"OBJECT_NAME":"SL-16 R/B","OBJECT_ID":"1999-039B","EPOCH":"2026-04-04T03:47:16.437696","MEAN_MOTION":14.81769655,"ECCENTRICITY":0.001505,"INCLINATION":97.9912,"RA_OF_ASC_NODE":153.2095,"ARG_OF_PERICENTER":169.6846,"MEAN_ANOMALY":190.4678,"EPHEMERIS_TYPE":0,"CLASSIFICATION_TYPE":"U","NORAD_CAT_ID":25861,"ELEMENT_SET_NO":999,"REV_AT_EPOCH":44063,"BSTAR":0.00013579631,"MEAN_MOTION_DOT":1.019e-5,"MEAN_MOTION_DDOT":0},{"OBJECT_NAME":"DELTA 2 R/B","OBJECT_ID":"1999-041E","EPOCH":"2026-04-04T06:43:36.231744","MEAN_MOTION":14.11898885,"ECCENTRICITY":0.05026254,"INCLINATION":51.761,"RA_OF_ASC_NODE":199.0514,"ARG_OF_PERICENTER":63.8946,"MEAN_ANOMALY":301.281,"EPHEMERIS_TYPE":0,"CLASSIFICATION_TYPE":"U","NORAD_CAT_ID":25876,"ELEMENT_SET_NO":999,"REV_AT_EPOCH":36664,"BSTAR":0.00019920038,"MEAN_MOTION_DOT":9.93e-6,"MEAN_MOTION_DDOT":0}]
